[{"OBJECT_NAME":"D-STAR ONE (SPARROW)","OBJECT_ID":"2018-111F","EPOCH":"2026-03-09T17:46:18.675552","MEAN_MOTION":15.54846146,"ECCENTRICITY":0.00041297,"INCLINATION":97.6111,"RA_OF_ASC_NODE":1.8771,"ARG_OF_PERICENTER":38.9805,"MEAN_ANOMALY":321.1745,"EPHEMERIS_TYPE":0,"CLASSIFICATION_TYPE":"U","NORAD_CAT_ID":43881,"ELEMENT_SET_NO":999,"REV_AT_EPOCH":39583,"BSTAR":0.0010829564,"MEAN_MOTION_DOT":0.00072664,"MEAN_MOTION_DDOT":0},{"OBJECT_NAME":"GLOBAL-4","OBJECT_ID":"2019-054E","EPOCH":"2026-03-09T08:50:03.339744","MEAN_MOTION":15.55419748,"ECCENTRICITY":0.00055925,"INCLINATION":45.007,"RA_OF_ASC_NODE":88.4746,"ARG_OF_PERICENTER":7.6875,"MEAN_ANOMALY":352.4104,"EPHEMERIS_TYPE":0,"CLASSIFICATION_TYPE":"U","NORAD_CAT_ID":44499,"ELEMENT_SET_NO":999,"REV_AT_EPOCH":36477,"BSTAR":0.00061659402,"MEAN_MOTION_DOT":0.00042886,"MEAN_MOTION_DDOT":0}]
