D-STAR ONE (SPARROW)    
1 43881U 18111F   26068.74049393  .00072664  00000+0  10830-2 0  9995
2 43881  97.6111   1.8771 0004130  38.9805 321.1745 15.54846145395830
GLOBAL-4                
1 44499U 19054E   26068.36809421  .00042886  00000+0  61659-3 0  9991
2 44499  45.0070  88.4746 0005592   7.6875 352.4104 15.55419748364774
